FENGYUN 1C DEB          
1 36731U 99025EBD 17345.78135621  .00000871  00000-0  33787-3 0  9995
2 36731  99.1674 187.1007 0050940  23.0030 337.3417 14.32039377237254
